{
  "type": "FeatureCollection",
  "features": [
    {
      "type": "Feature",
      "properties": {
        "norad_id": 29985,
        "name": "FENGYUN 1C DEB",
        "group": "fengyun-1c-debris",
        "lat": 37.46194701649004,
        "lon": -10.119429930319674,
        "alt_km": 875.5387525985061,
        "timestamp": "2025-12-07T09:35:10.063271+00:00",
        "meta_object_name": "FENGYUN 1C DEB",
        "meta_object_id": "1999-025LK",
        "meta_epoch": "2025-12-06T23:28:05.343168",
        "meta_mean_motion": 14.10322247,
        "meta_eccentricity": 0.00278695,
        "meta_inclination": 98.7108,
        "meta_ra_of_asc_node": 356.2188,
        "meta_arg_of_pericenter": 225.6994,
        "meta_mean_anomaly": 193.0814,
        "meta_ephemeris_type": 0,
        "meta_classification_type": "U",
        "meta_norad_cat_id": 29985,
        "meta_element_set_no": 999,
        "meta_rev_at_epoch": 97267,
        "meta_bstar": 0.00011370457,
        "meta_mean_motion_dot": 1.6e-06,
        "meta_mean_motion_ddot": 0,
        "tle_line1": "1 29985U 99025LK  25340.97783962  .00000160  00000+0  11370-3 0  9994",
        "tle_line2": "2 29985  98.7108 356.2188 0027869 225.6994 193.0814 14.10322247972673"
      },
      "geometry": {
        "type": "Point",
        "coordinates": [
          -10.119429930319674,
          37.46194701649004
        ]
      }
    },
    {
      "type": "Feature",
      "properties": {
        "norad_id": 29986,
        "name": "FENGYUN 1C DEB",
        "group": "fengyun-1c-debris",
        "lat": 8.866022866821508,
        "lon": 47.172169543760525,
        "alt_km": 779.8828623582449,
        "timestamp": "2025-12-07T09:35:10.063281+00:00",
        "meta_object_name": "FENGYUN 1C DEB",
        "meta_object_id": "1999-025LL",
        "meta_epoch": "2025-12-06T22:36:14.004864",
        "meta_mean_motion": 14.29151601,
        "meta_eccentricity": 0.00228671,
        "meta_inclination": 99.3985,
        "meta_ra_of_asc_node": 48.1597,
        "meta_arg_of_pericenter": 15.38,
        "meta_mean_anomaly": 160.7576,
        "meta_ephemeris_type": 0,
        "meta_classification_type": "U",
        "meta_norad_cat_id": 29986,
        "meta_element_set_no": 999,
        "meta_rev_at_epoch": 97424,
        "meta_bstar": 0.0025746359,
        "meta_mean_motion_dot": 6.506e-05,
        "meta_mean_motion_ddot": 0,
        "tle_line1": "1 29986U 99025LL  25340.94182876  .00006506  00000+0  25746-2 0  9990",
        "tle_line2": "2 29986  99.3985  48.1597 0022867  15.3800 160.7576 14.29151601974243"
      },
      "geometry": {
        "type": "Point",
        "coordinates": [
          47.172169543760525,
          8.866022866821508
        ]
      }
    },
    {
      "type": "Feature",
      "properties": {
        "norad_id": 29987,
        "name": "FENGYUN 1C DEB",
        "group": "fengyun-1c-debris",
        "lat": -65.04794941224849,
        "lon": 33.727052739693626,
        "alt_km": 793.358311906908,
        "timestamp": "2025-12-07T09:35:10.063291+00:00",
        "meta_object_name": "FENGYUN 1C DEB",
        "meta_object_id": "1999-025LM",
        "meta_epoch": "2025-12-06T15:45:38.149920",
        "meta_mean_motion": 14.14456092,
        "meta_eccentricity": 0.00803039,
        "meta_inclination": 98.8974,
        "meta_ra_of_asc_node": 232.6613,
        "meta_arg_of_pericenter": 251.1946,
        "meta_mean_anomaly": 175.4662,
        "meta_ephemeris_type": 0,
        "meta_classification_type": "U",
        "meta_norad_cat_id": 29987,
        "meta_element_set_no": 999,
        "meta_rev_at_epoch": 96287,
        "meta_bstar": 0.0043390439,
        "meta_mean_motion_dot": 8.539e-05,
        "meta_mean_motion_ddot": 0,
        "tle_line1": "1 29987U 99025LM  25340.65669155  .00008539  00000+0  43390-2 0  9992",
        "tle_line2": "2 29987  98.8974 232.6613 0080303 251.1946 175.4662 14.14456092962876"
      },
      "geometry": {
        "type": "Point",
        "coordinates": [
          33.727052739693626,
          -65.04794941224849
        ]
      }
    },
    {
      "type": "Feature",
      "properties": {
        "norad_id": 29988,
        "name": "FENGYUN 1C DEB",
        "group": "fengyun-1c-debris",
        "lat": -59.22183697595204,
        "lon": 100.02051273326933,
        "alt_km": 738.0192422939344,
        "timestamp": "2025-12-07T09:35:10.063302+00:00",
        "meta_object_name": "FENGYUN 1C DEB",
        "meta_object_id": "1999-025LN",
        "meta_epoch": "2025-12-06T19:29:17.550816",
        "meta_mean_motion": 14.50275648,
        "meta_eccentricity": 0.01209137,
        "meta_inclination": 98.6964,
        "meta_ra_of_asc_node": 84.5232,
        "meta_arg_of_pericenter": 36.319,
        "meta_mean_anomaly": 79.6499,
        "meta_ephemeris_type": 0,
        "meta_classification_type": "U",
        "meta_norad_cat_id": 29988,
        "meta_element_set_no": 999,
        "meta_rev_at_epoch": 97981,
        "meta_bstar": 0.002608659,
        "meta_mean_motion_dot": 0.00011127,
        "meta_mean_motion_ddot": 0,
        "tle_line1": "1 29988U 99025LN  25340.81200869  .00011127  00000+0  26087-2 0  9995",
        "tle_line2": "2 29988  98.6964  84.5232 0120913  36.3190  79.6499 14.50275648979812"
      },
      "geometry": {
        "type": "Point",
        "coordinates": [
          100.02051273326933,
          -59.22183697595204
        ]
      }
    },
    {
      "type": "Feature",
      "properties": {
        "norad_id": 29989,
        "name": "FENGYUN 1C DEB",
        "group": "fengyun-1c-debris",
        "lat": 19.137553847730977,
        "lon": 143.36778355348204,
        "alt_km": 782.5675637633258,
        "timestamp": "2025-12-07T09:35:10.063311+00:00",
        "meta_object_name": "FENGYUN 1C DEB",
        "meta_object_id": "1999-025LP",
        "meta_epoch": "2025-12-06T22:57:17.606592",
        "meta_mean_motion": 14.15813491,
        "meta_eccentricity": 0.01229727,
        "meta_inclination": 98.6672,
        "meta_ra_of_asc_node": 319.9027,
        "meta_arg_of_pericenter": 212.2971,
        "meta_mean_anomaly": 212.7999,
        "meta_ephemeris_type": 0,
        "meta_classification_type": "U",
        "meta_norad_cat_id": 29989,
        "meta_element_set_no": 999,
        "meta_rev_at_epoch": 97529,
        "meta_bstar": 0.00024639592,
        "meta_mean_motion_dot": 4.78e-06,
        "meta_mean_motion_ddot": 0,
        "tle_line1": "1 29989U 99025LP  25340.95645378  .00000478  00000+0  24640-3 0  9990",
        "tle_line2": "2 29989  98.6672 319.9027 0122972 212.2971 212.7999 14.15813491975293"
      },
      "geometry": {
        "type": "Point",
        "coordinates": [
          143.36778355348204,
          19.137553847730977
        ]
      }
    },
    {
      "type": "Feature",
      "properties": {
        "norad_id": 29992,
        "name": "FENGYUN 1C DEB",
        "group": "fengyun-1c-debris",
        "lat": 73.12304189107243,
        "lon": -172.8945559550014,
        "alt_km": 833.3407310006496,
        "timestamp": "2025-12-07T09:35:10.063322+00:00",
        "meta_object_name": "FENGYUN 1C DEB",
        "meta_object_id": "1999-025LS",
        "meta_epoch": "2025-12-06T23:08:44.651616",
        "meta_mean_motion": 14.11608503,
        "meta_eccentricity": 0.00885827,
        "meta_inclination": 98.7296,
        "meta_ra_of_asc_node": 336.2549,
        "meta_arg_of_pericenter": 184.0477,
        "meta_mean_anomaly": 231.9889,
        "meta_ephemeris_type": 0,
        "meta_classification_type": "U",
        "meta_norad_cat_id": 29992,
        "meta_element_set_no": 999,
        "meta_rev_at_epoch": 97306,
        "meta_bstar": 0.00012581931,
        "meta_mean_motion_dot": 1.94e-06,
        "meta_mean_motion_ddot": 0,
        "tle_line1": "1 29992U 99025LS  25340.96440569  .00000194  00000+0  12582-3 0  9997",
        "tle_line2": "2 29992  98.7296 336.2549 0088582 184.0477 231.9889 14.11608503973062"
      },
      "geometry": {
        "type": "Point",
        "coordinates": [
          -172.8945559550014,
          73.12304189107243
        ]
      }
    },
    {
      "type": "Feature",
      "properties": {
        "norad_id": 29993,
        "name": "FENGYUN 1C DEB",
        "group": "fengyun-1c-debris",
        "lat": 44.92083241041999,
        "lon": -152.84966865513144,
        "alt_km": 888.7948662135968,
        "timestamp": "2025-12-07T09:35:10.063332+00:00",
        "meta_object_name": "FENGYUN 1C DEB",
        "meta_object_id": "1999-025LT",
        "meta_epoch": "2025-12-06T15:53:48.635808",
        "meta_mean_motion": 14.0814594,
        "meta_eccentricity": 0.0038696,
        "meta_inclination": 98.794,
        "meta_ra_of_asc_node": 17.5519,
        "meta_arg_of_pericenter": 332.1615,
        "meta_mean_anomaly": 27.7484,
        "meta_ephemeris_type": 0,
        "meta_classification_type": "U",
        "meta_norad_cat_id": 29993,
        "meta_element_set_no": 999,
        "meta_rev_at_epoch": 97084,
        "meta_bstar": 0.00016969615,
        "meta_mean_motion_dot": 2.48e-06,
        "meta_mean_motion_ddot": 0,
        "tle_line1": "1 29993U 99025LT  25340.66236847  .00000248  00000+0  16970-3 0  9992",
        "tle_line2": "2 29993  98.7940  17.5519 0038696 332.1615  27.7484 14.08145940970848"
      },
      "geometry": {
        "type": "Point",
        "coordinates": [
          -152.84966865513144,
          44.92083241041999
        ]
      }
    }
  ]
}